OBJECT_NAME,OBJECT_ID,EPOCH,MEAN_MOTION,ECCENTRICITY,INCLINATION,RA_OF_ASC_NODE,ARG_OF_PERICENTER,MEAN_ANOMALY,EPHEMERIS_TYPE,CLASSIFICATION_TYPE,NORAD_CAT_ID,ELEMENT_SET_NO,REV_AT_EPOCH,BSTAR,MEAN_MOTION_DOT,MEAN_MOTION_DDOT
STARLINK-37023,2026-042H,2026-06-09T03:54:03.830112,15.34406890,.00012791,53.1577,112.8859,91.0526,269.0624,0,U,68076,999,1632,.62674167E-3,.20863E-3,0
STARLINK-37036,2026-042J,2026-06-09T04:26:34.977984,15.34406131,.00008488,53.1597,110.8760,103.2357,256.8740,0,U,68077,999,1635,.7385495E-3,.24664E-3,0
STARLINK-36973,2026-042K,2026-06-09T03:23:45.919680,15.34405047,.00010896,53.1581,112.7458,76.9680,283.1444,0,U,68078,999,1632,.66048887E-3,.22009E-3,0
STARLINK-37063,2026-042L,2026-06-09T03:44:59.815104,15.34373046,.00016172,53.1588,112.8397,108.5689,251.5490,0,U,68079,999,1632,.75182431E-3,.25089E-3,0
STARLINK-37051,2026-042M,2026-06-09T04:14:27.395808,15.34414377,.00011562,53.1579,110.8049,110.4925,249.6202,0,U,68080,999,1635,.65567717E-3,.21852E-3,0
STARLINK-37066,2026-042N,2026-06-09T03:04:54.391584,15.34419390,.00015934,53.1597,111.2355,84.5749,275.5435,0,U,68081,999,1634,.86760147E-3,.29069E-3,0
STARLINK-37054,2026-042P,2026-06-09T03:29:49.399296,15.34405083,.00012644,53.1577,112.7613,85.3155,274.7992,0,U,68082,999,1632,.68568256E-3,.22865E-3,0
STARLINK-37065,2026-042Q,2026-06-09T02:35:25.230624,15.34401817,.00013209,53.1586,113.2599,92.4970,267.6183,0,U,68083,999,1631,.32382777E-3,.10581E-3,0
STARLINK-37037,2026-042R,2026-06-09T03:17:42.452160,15.34420371,.00014223,53.1590,112.7198,91.5989,268.5177,0,U,68084,999,1632,.10181927E-2,.34204E-3,0
STARLINK-37068,2026-042S,2026-06-09T04:20:31.367904,15.34401456,.00013057,53.1586,110.8408,84.4615,275.6537,0,U,68085,999,1635,.65623716E-3,.21861E-3,0
STARLINK-37067,2026-042T,2026-06-09T02:58:51.148704,15.34443414,.00017173,53.1588,111.1851,98.6151,261.5046,0,U,68086,999,1634,.86514672E-3,.29008E-3,0
STARLINK-37062,2026-042U,2026-06-09T03:02:33.375552,15.34418023,.0001447,53.1587,112.6385,76.9629,283.1535,0,U,68087,999,1632,.88191234E-3,.29555E-3,0
STARLINK-37059,2026-042V,2026-06-09T03:57:06.409728,15.34407434,.00012155,53.1580,112.9009,90.5727,269.5415,0,U,68088,999,1632,.57244948E-3,.19019E-3,0
STARLINK-37004,2026-042W,2026-06-09T04:24:21.703392,15.34410130,.00012678,53.1594,113.0119,98.9024,261.2122,0,U,68089,999,1632,.68944239E-3,.22997E-3,0
STARLINK-36320,2026-042X,2026-06-09T03:08:37.059936,15.34409835,.00018235,53.1600,112.6819,90.3687,269.7524,0,U,68090,999,1632,.57066122E-3,.18959E-3,0
STARLINK-36324,2026-042Y,2026-06-09T04:30:17.541792,15.34407232,.0001392,53.1591,112.3202,88.8268,271.2894,0,U,68091,999,1633,.57342831E-3,.19052E-3,0
STARLINK-36896,2026-042Z,2026-06-09T03:41:56.655744,15.34403274,.0001132,53.1588,112.8275,85.2970,274.8162,0,U,68092,999,1631,.66919022E-3,.22303E-3,0
STARLINK-36251,2026-042AA,2026-06-09T03:38:54.312864,15.34464301,.00024285,53.1576,112.8134,111.0536,249.0726,0,U,68093,999,1631,.21379334E-2,.72711E-3,0
STARLINK-36787,2026-042AB,2026-06-09T02:59:31.729920,15.34411614,.00014553,53.1584,112.6354,86.1669,273.9500,0,U,68094,999,1631,.95438452E-3,.32019E-3,0
STARLINK-36790,2026-042AC,2026-06-09T01:46:56.442432,15.34399009,.00012499,53.1587,113.0393,94.7943,265.3203,0,U,68095,999,1630,.38185473E-3,.12547E-3,0
STARLINK-36328,2026-042AD,2026-06-09T02:38:25.573344,15.34426529,.00014976,53.1591,113.2554,101.5445,258.5726,0,U,68096,999,1630,.45330884E-3,.14983E-3,0
STARLINK-36853,2026-042AE,2026-06-09T03:51:01.822464,15.34414607,.00012758,53.1580,112.8669,85.2497,274.8652,0,U,68097,999,1631,.7034738E-3,.23477E-3,0
GLOBAL-34,2026-043A,2026-06-09T00:15:11.326464,15.32480670,.00050674,42.0213,268.0453,239.4263,120.6075,0,U,68098,999,1457,.26222073E-3,.816E-4,0
STARLINK-37022,2026-044A,2026-06-09T03:25:33.385728,15.33458078,.00025663,97.2837,120.4863,97.4049,262.7486,0,U,68101,999,1559,.48523854E-3,.1563E-3,0
STARLINK-37046,2026-044B,2026-06-09T03:21:38.414016,15.33455450,.00012628,97.2838,120.4894,93.0587,267.0800,0,U,68102,999,1559,.4488585E-3,.14448E-3,0
STARLINK-37018,2026-044C,2026-06-09T06:25:39.458784,15.33464883,.00006671,97.2804,120.6198,104.3840,255.7477,0,U,68103,999,1561,.85013797E-3,.27488E-3,0
STARLINK-37041,2026-044D,2026-06-09T03:09:53.760672,15.33454525,.00013419,97.2841,120.5010,68.9512,291.1874,0,U,68104,999,1559,.51321983E-3,.16535E-3,0
STARLINK-37021,2026-044E,2026-06-09T03:05:58.846848,15.33461788,.0001703,97.2827,120.5019,88.0093,272.1345,0,U,68105,999,1559,.64134485E-3,.20698E-3,0
STARLINK-37024,2026-044F,2026-06-09T03:02:03.860448,15.33457247,.00013316,97.2826,120.5072,88.7177,271.4218,0,U,68106,999,1559,.54820745E-3,.17671E-3,0
STARLINK-37005,2026-044G,2026-06-09T06:21:44.690976,15.33457062,.00010293,97.2834,120.6235,108.3224,251.8130,0,U,68107,999,1561,.60605255E-3,.19549E-3,0
