STARLINK-37023          
1 68076U 26042H   26160.16254433  .00020863  00000+0  62674-3 0  9990
2 68076  53.1577 112.8859 0001279  91.0526 269.0624 15.34406890 16324
STARLINK-37036          
1 68077U 26042J   26160.18512706  .00024664  00000+0  73855-3 0  9999
2 68077  53.1597 110.8760 0000848 103.2357 256.8740 15.34406131 16359
STARLINK-36973          
1 68078U 26042K   26160.14150370  .00022009  00000+0  66049-3 0  9999
2 68078  53.1581 112.7458 0001089  76.9680 283.1444 15.34405047 16327
STARLINK-37063          
1 68079U 26042L   26160.15624786  .00025089  00000+0  75182-3 0  9997
2 68079  53.1588 112.8397 0001617 108.5689 251.5490 15.34373046 16329
STARLINK-37051          
1 68080U 26042M   26160.17670597  .00021852  00000+0  65568-3 0  9993
2 68080  53.1579 110.8049 0001156 110.4925 249.6202 15.34414377 16351
STARLINK-37066          
1 68081U 26042N   26160.12840731  .00029069  00000+0  86760-3 0  9993
2 68081  53.1597 111.2355 0001593  84.5749 275.5435 15.34419390 16342
STARLINK-37054          
1 68082U 26042P   26160.14571064  .00022865  00000+0  68568-3 0  9999
2 68082  53.1577 112.7613 0001264  85.3155 274.7992 15.34405083 16320
STARLINK-37065          
1 68083U 26042Q   26160.10793091  .00010581  00000+0  32383-3 0  9990
2 68083  53.1586 113.2599 0001320  92.4970 267.6183 15.34401817 16310
STARLINK-37037          
1 68084U 26042R   26160.13729690  .00034204  00000+0  10182-2 0  9998
2 68084  53.1590 112.7198 0001422  91.5989 268.5177 15.34420371 16328
STARLINK-37068          
1 68085U 26042S   26160.18091861  .00021861  00000+0  65624-3 0  9993
2 68085  53.1586 110.8408 0001305  84.4615 275.6537 15.34401456 16359
STARLINK-37067          
1 68086U 26042T   26160.12420311  .00029008  00000+0  86515-3 0  9997
2 68086  53.1588 111.1851 0001717  98.6151 261.5046 15.34443414 16345
STARLINK-37062          
1 68087U 26042U   26160.12677518  .00029555  00000+0  88191-3 0  9990
2 68087  53.1587 112.6385 0001447  76.9629 283.1535 15.34418023 16321
STARLINK-37059          
1 68088U 26042V   26160.16465752  .00019019  00000+0  57245-3 0  9990
2 68088  53.1580 112.9009 0001215  90.5727 269.5415 15.34407434 16324
STARLINK-37004          
1 68089U 26042W   26160.18358453  .00022997  00000+0  68944-3 0  9999
2 68089  53.1594 113.0119 0001267  98.9024 261.2122 15.34410130 16324
STARLINK-36320          
1 68090U 26042X   26160.13098449  .00018959  00000+0  57066-3 0  9998
2 68090  53.1600 112.6819 0001823  90.3687 269.7524 15.34409835 16324
STARLINK-36324          
1 68091U 26042Y   26160.18770303  .00019052  00000+0  57343-3 0  9993
2 68091  53.1591 112.3202 0001392  88.8268 271.2894 15.34407232 16333
STARLINK-36896          
1 68092U 26042Z   26160.15412796  .00022303  00000+0  66919-3 0  9992
2 68092  53.1588 112.8275 0001132  85.2970 274.8162 15.34403274 16315
STARLINK-36251          
1 68093U 26042AA  26160.15201751  .00072711  00000+0  21379-2 0  9998
2 68093  53.1576 112.8134 0002428 111.0536 249.0726 15.34464301 16310
STARLINK-36787          
1 68094U 26042AB  26160.12467280  .00032019  00000+0  95438-3 0  9992
2 68094  53.1584 112.6354 0001455  86.1669 273.9500 15.34411614 16315
STARLINK-36790          
1 68095U 26042AC  26160.07426438  .00012547  00000+0  38185-3 0  9997
2 68095  53.1587 113.0393 0001249  94.7943 265.3203 15.34399009 16305
STARLINK-36328          
1 68096U 26042AD  26160.11001821  .00014983  00000+0  45331-3 0  9995
2 68096  53.1591 113.2554 0001497 101.5445 258.5726 15.34426529 16303
STARLINK-36853          
1 68097U 26042AE  26160.16043776  .00023477  00000+0  70347-3 0  9999
2 68097  53.1580 112.8669 0001275  85.2497 274.8652 15.34414607 16317
GLOBAL-34               
1 68098U 26043A   26160.01054776  .00008160  00000+0  26222-3 0  9992
2 68098  42.0213 268.0453 0005067 239.4263 120.6075 15.32480670 14574
STARLINK-37022          
1 68101U 26044A   26160.14274752  .00015630  00000+0  48524-3 0  9999
2 68101  97.2837 120.4863 0002566  97.4049 262.7486 15.33458078 15599
STARLINK-37046          
1 68102U 26044B   26160.14002794  .00014448  00000+0  44886-3 0  9998
2 68102  97.2838 120.4894 0001262  93.0587 267.0800 15.33455450 15595
STARLINK-37018          
1 68103U 26044C   26160.26781781  .00027488  00000+0  85014-3 0  9998
2 68103  97.2804 120.6198 0000667 104.3840 255.7477 15.33464883 15611
STARLINK-37041          
1 68104U 26044D   26160.13187223  .00016535  00000+0  51322-3 0  9992
2 68104  97.2841 120.5010 0001341  68.9512 291.1874 15.33454525 15590
STARLINK-37021          
1 68105U 26044E   26160.12915332  .00020698  00000+0  64134-3 0  9992
2 68105  97.2827 120.5019 0001703  88.0093 272.1345 15.33461788 15594
STARLINK-37024          
1 68106U 26044F   26160.12643357  .00017671  00000+0  54821-3 0  9997
2 68106  97.2826 120.5072 0001331  88.7177 271.4218 15.33457247 15596
STARLINK-37005          
1 68107U 26044G   26160.26510059  .00019549  00000+0  60605-3 0  9998
2 68107  97.2834 120.6235 0001029 108.3224 251.8130 15.33457062 15617
